start=new Date('2022-05-24T00:00:00.000Z').valueOf();
sats=[{"APOAPSIS":"548.310","INCLINATION":"53.0552","TIME_SYSTEM":"UTC","SITE":"AFETR","EPOCH":"2022-05-23T20:38:59.838720","GP_ID":"204364450","TLE_LINE1":"1 48450U 21040Y   22143.86041480  .00001049  00000-0  89328-4 0  9999","NORAD_CAT_ID":"48450","SEMIMAJOR_AXIS":"6925.348","BSTAR":"0.00008932800000","CLASSIFICATION_TYPE":"U","MEAN_ANOMALY":"309.0919","RA_OF_ASC_NODE":"282.8528","LAUNCH_DATE":"2021-05-09","CENTER_NAME":"EARTH","PERIAPSIS":"546.116","REF_FRAME":"TEME","ARG_OF_PERICENTER":"51.0211","ECCENTRICITY":"0.00015840","MEAN_MOTION":"15.06400162","OBJECT_TYPE":"PAYLOAD","ELEMENT_SET_NO":"999","TLE_LINE2":"2 48450  53.0552 282.8528 0001584  51.0211 309.0919 15.06400162 57756","FILE":"3460905","MEAN_MOTION_DOT":"0.00001049","MEAN_ELEMENT_THEORY":"SGP4","EPHEMERIS_TYPE":"0","MEAN_MOTION_DDOT":"0.0000000000000","OBJECT_ID":"2021-040Y","REV_AT_EPOCH":"5775","DECAY_DATE":null,"COUNTRY_CODE":"US","RCS_SIZE":"LARGE","OBJECT_NAME":"STARLINK-2660","PERIOD":"95.592"},{"BSTAR":"0.01090000000000","CLASSIFICATION_TYPE":"U","MEAN_ANOMALY":"174.6451","CENTER_NAME":"EARTH","LAUNCH_DATE":"2021-05-09","RA_OF_ASC_NODE":"282.0120","SEMIMAJOR_AXIS":"6925.192","GP_ID":"204369069","TLE_LINE1":"1 48451U 21040Z   22144.05837734  .00166184  00000-0  10900-1 0  9996","NORAD_CAT_ID":"48451","APOAPSIS":"549.021","TIME_SYSTEM":"UTC","INCLINATION":"53.0605","EPOCH":"2022-05-24T01:24:03.802176","SITE":"AFETR","OBJECT_NAME":"STARLINK-2652","RCS_SIZE":"LARGE","PERIOD":"95.589","ELEMENT_SET_NO":"999","EPHEMERIS_TYPE":"0","MEAN_ELEMENT_THEORY":"SGP4","TLE_LINE2":"2 48451  53.0605 282.0120 0002837 184.6404 174.6451 15.06451189 59063","FILE":"3460920","MEAN_MOTION_DOT":"0.00166184","MEAN_MOTION_DDOT":"0.0000000000000","OBJECT_ID":"2021-040Z","COUNTRY_CODE":"US","DECAY_DATE":null,"REV_AT_EPOCH":"5906","MEAN_MOTION":"15.06451189","OBJECT_TYPE":"PAYLOAD","PERIAPSIS":"545.092","ARG_OF_PERICENTER":"184.6404","REF_FRAME":"TEME","ECCENTRICITY":"0.00028370"},{"OBJECT_TYPE":"PAYLOAD","MEAN_MOTION":"15.06397639","ECCENTRICITY":"0.00016420","ARG_OF_PERICENTER":"64.1517","REF_FRAME":"TEME","PERIAPSIS":"546.084","PERIOD":"95.592","OBJECT_NAME":"STARLINK-2703","RCS_SIZE":"LARGE","COUNTRY_CODE":"US","DECAY_DATE":null,"REV_AT_EPOCH":"5773","MEAN_MOTION_DDOT":"0.0000000000000","OBJECT_ID":"2021-040AA","MEAN_ELEMENT_THEORY":"SGP4","EPHEMERIS_TYPE":"0","MEAN_MOTION_DOT":"0.00000892","TLE_LINE2":"2 48452  53.0552 283.4353 0001642  64.1517 295.9641 15.06397639 57737","FILE":"3460905","ELEMENT_SET_NO":"999","NORAD_CAT_ID":"48452","TLE_LINE1":"1 48452U 21040AA  22143.72403393  .00000892  00000-0  78770-4 0  9995","GP_ID":"204365447","EPOCH":"2022-05-23T17:22:36.531552","SITE":"AFETR","TIME_SYSTEM":"UTC","INCLINATION":"53.0552","APOAPSIS":"548.358","CENTER_NAME":"EARTH","LAUNCH_DATE":"2021-05-09","RA_OF_ASC_NODE":"283.4353","CLASSIFICATION_TYPE":"U","MEAN_ANOMALY":"295.9641","BSTAR":"0.00007877000000","SEMIMAJOR_AXIS":"6925.356"},{"MEAN_MOTION":"15.06400603","OBJECT_TYPE":"PAYLOAD","ARG_OF_PERICENTER":"71.4872","REF_FRAME":"TEME","PERIAPSIS":"546.250","ECCENTRICITY":"0.00013890","RCS_SIZE":"LARGE","OBJECT_NAME":"STARLINK-2620","PERIOD":"95.592","EPHEMERIS_TYPE":"0","MEAN_ELEMENT_THEORY":"SGP4","MEAN_MOTION_DOT":"0.00001719","TLE_LINE2":"2 48453  53.0557 283.7700 0001389  71.4872 288.6268 15.06400603 57724","FILE":"3460905","ELEMENT_SET_NO":"999","DECAY_DATE":null,"COUNTRY_CODE":"US","REV_AT_EPOCH":"5772","OBJECT_ID":"2021-040AB","MEAN_MOTION_DDOT":"0.0000000000000","GP_ID":"204366199","TLE_LINE1":"1 48453U 21040AB  22143.65400195  .00001719  00000-0  13426-3 0  9990","NORAD_CAT_ID":"48453","TIME_SYSTEM":"UTC","INCLINATION":"53.0557","APOAPSIS":"548.174","EPOCH":"2022-05-23T15:41:45.768480","SITE":"AFETR","BSTAR":"0.00013426000000","CENTER_NAME":"EARTH","RA_OF_ASC_NODE":"283.7700","LAUNCH_DATE":"2021-05-09","MEAN_ANOMALY":"288.6268","CLASSIFICATION_TYPE":"U","SEMIMAJOR_AXIS":"6925.347"},{"RA_OF_ASC_NODE":"283.5052","LAUNCH_DATE":"2021-05-09","CENTER_NAME":"EARTH","MEAN_ANOMALY":"290.9326","CLASSIFICATION_TYPE":"U","BSTAR":"0.00010671000000","SEMIMAJOR_AXIS":"6925.338","NORAD_CAT_ID":"48454","GP_ID":"204364950","TLE_LINE1":"1 48454U 21040AC  22143.71665817  .00001308  00000-0  10671-3 0  9995","SITE":"AFETR","EPOCH":"2022-05-23T17:11:59.265888","INCLINATION":"53.0557","TIME_SYSTEM":"UTC","APOAPSIS":"548.149","PERIOD":"95.592","OBJECT_NAME":"STARLINK-2654","RCS_SIZE":"LARGE","REV_AT_EPOCH":"5773","DECAY_DATE":null,"COUNTRY_CODE":"US","MEAN_MOTION_DDOT":"0.0000000000000","OBJECT_ID":"2021-040AC","TLE_LINE2":"2 48454  53.0557 283.5052 0001365  69.1809 290.9326 15.06403331 57734","FILE":"3460905","MEAN_MOTION_DOT":"0.00001308","MEAN_ELEMENT_THEORY":"SGP4","EPHEMERIS_TYPE":"0","ELEMENT_SET_NO":"999","OBJECT_TYPE":"PAYLOAD","MEAN_MOTION":"15.06403331","ECCENTRICITY":"0.00013650","REF_FRAME":"TEME","ARG_OF_PERICENTER":"69.1809","PERIAPSIS":"546.258"},{"GP_ID":"204365199","TLE_LINE1":"1 48455U 21040AD  22143.71298413 -.00006001  00000-0 -38409-3 0  9996","NORAD_CAT_ID":"48455","APOAPSIS":"548.576","TIME_SYSTEM":"UTC","INCLINATION":"53.0571","EPOCH":"2022-05-23T17:06:41.828832","SITE":"AFETR","BSTAR":"-0.00038409000000","MEAN_ANOMALY":"306.9851","CLASSIFICATION_TYPE":"U","CENTER_NAME":"EARTH","LAUNCH_DATE":"2021-05-09","RA_OF_ASC_NODE":"283.5020","SEMIMAJOR_AXIS":"6925.303","MEAN_MOTION":"15.06414727","OBJECT_TYPE":"PAYLOAD","PERIAPSIS":"545.761","ARG_OF_PERICENTER":"53.1324","REF_FRAME":"TEME","ECCENTRICITY":"0.00020320","RCS_SIZE":"LARGE","OBJECT_NAME":"STARLINK-2497","PERIOD":"95.591","ELEMENT_SET_NO":"999","EPHEMERIS_TYPE":"0","MEAN_ELEMENT_THEORY":"SGP4","FILE":"3460905","TLE_LINE2":"2 48455  53.0571 283.5020 0002032  53.1324 306.9851 15.06414727 57724","MEAN_MOTION_DOT":"-0.00006001","OBJECT_ID":"2021-040AD","MEAN_MOTION_DDOT":"0.0000000000000","COUNTRY_CODE":"US","DECAY_DATE":null,"REV_AT_EPOCH":"5772"},{"RCS_SIZE":"LARGE","OBJECT_NAME":"STARLINK-2508","PERIOD":"95.592","TLE_LINE2":"2 48456  53.0566 283.5291 0001648  63.6478 296.4680 15.06397494 57721","FILE":"3460905","MEAN_MOTION_DOT":"-0.00000175","MEAN_ELEMENT_THEORY":"SGP4","EPHEMERIS_TYPE":"0","ELEMENT_SET_NO":"999","REV_AT_EPOCH":"5772","COUNTRY_CODE":"US","DECAY_DATE":null,"OBJECT_ID":"2021-040AE","MEAN_MOTION_DDOT":"0.0000000000000","MEAN_MOTION":"15.06397494","OBJECT_TYPE":"PAYLOAD","REF_FRAME":"TEME","ARG_OF_PERICENTER":"63.6478","PERIAPSIS":"546.080","ECCENTRICITY":"0.00016480","BSTAR":"0.00000716930000","RA_OF_ASC_NODE":"283.5291","LAUNCH_DATE":"2021-05-09","CENTER_NAME":"EARTH","CLASSIFICATION_TYPE":"U","MEAN_ANOMALY":"296.4680","SEMIMAJOR_AXIS":"6925.356","GP_ID":"204365947","TLE_LINE1":"1 48456U 21040AE  22143.70929761 -.00000175  00000-0  71693-5 0  9992","NORAD_CAT_ID":"48456","INCLINATION":"53.0566","TIME_SYSTEM":"UTC","APOAPSIS":"548.363","SITE":"AFETR","EPOCH":"2022-05-23T17:01:23.313504"},{"MEAN_ANOMALY":"292.3183","CLASSIFICATION_TYPE":"U","LAUNCH_DATE":"2021-05-09","RA_OF_ASC_NODE":"288.5404","CENTER_NAME":"EARTH","BSTAR":"-0.00017604000000","SEMIMAJOR_AXIS":"6932.790","NORAD_CAT_ID":"48458","TLE_LINE1":"1 48458U 21040AG  22143.71857948 -.00002731  00000-0 -17604-3 0  9993","GP_ID":"204365700","SITE":"AFETR","EPOCH":"2022-05-23T17:14:45.267072","APOAPSIS":"555.885","INCLINATION":"53.0541","TIME_SYSTEM":"UTC","PERIOD":"95.746","RCS_SIZE":"LARGE","OBJECT_NAME":"STARLINK-2698","MEAN_MOTION_DDOT":"0.0000000000000","OBJECT_ID":"2021-040AG","REV_AT_EPOCH":"5837","DECAY_DATE":null,"COUNTRY_CODE":"US","ELEMENT_SET_NO":"999","TLE_LINE2":"2 48458  53.0541 288.5404 0001774  67.7993 292.3183 15.03975266 58375","FILE":"3460905","MEAN_MOTION_DOT":"-0.00002731","EPHEMERIS_TYPE":"0","MEAN_ELEMENT_THEORY":"SGP4","OBJECT_TYPE":"PAYLOAD","MEAN_MOTION":"15.03975266","ECCENTRICITY":"0.00017740","PERIAPSIS":"553.425","REF_FRAME":"TEME","ARG_OF_PERICENTER":"67.7993"},{"OBJECT_NAME":"STARLINK-2579","RCS_SIZE":"LARGE","PERIOD":"95.746","ELEMENT_SET_NO":"999","FILE":"3460905","TLE_LINE2":"2 48459  53.0542 288.0935 0001834  65.9248 294.1932 15.03978722 57686","MEAN_MOTION_DOT":"-0.00018151","MEAN_ELEMENT_THEORY":"SGP4","EPHEMERIS_TYPE":"0","MEAN_MOTION_DDOT":"0.0000000000000","OBJECT_ID":"2021-040AH","REV_AT_EPOCH":"5768","COUNTRY_CODE":"US","DECAY_DATE":null,"MEAN_MOTION":"15.03978722","OBJECT_TYPE":"PAYLOAD","PERIAPSIS":"553.373","REF_FRAME":"TEME","ARG_OF_PERICENTER":"65.9248","ECCENTRICITY":"0.00018340","BSTAR":"-0.00128400000000","MEAN_ANOMALY":"294.1932","CLASSIFICATION_TYPE":"U","RA_OF_ASC_NODE":"288.0935","LAUNCH_DATE":"2021-05-09","CENTER_NAME":"EARTH","SEMIMAJOR_AXIS":"6932.779","GP_ID":"204364451","TLE_LINE1":"1 48459U 21040AH  22143.81826067 -.00018151  00000-0 -12840-2 0  9992","NORAD_CAT_ID":"48459","APOAPSIS":"555.916","INCLINATION":"53.0542","TIME_SYSTEM":"UTC","SITE":"AFETR","EPOCH":"2022-05-23T19:38:17.721888"},{"SEMIMAJOR_AXIS":"6925.357","CENTER_NAME":"EARTH","LAUNCH_DATE":"2021-05-09","RA_OF_ASC_NODE":"288.7300","MEAN_ANOMALY":"296.2577","CLASSIFICATION_TYPE":"U","BSTAR":"0.00014601000000","EPOCH":"2022-05-23T15:59:41.210880","SITE":"AFETR","TIME_SYSTEM":"UTC","INCLINATION":"53.0556","APOAPSIS":"548.469","NORAD_CAT_ID":"48460","GP_ID":"204364701","TLE_LINE1":"1 48460U 21040AJ  22143.66644920  .00001894  00000-0  14601-3 0  9995","DECAY_DATE":null,"COUNTRY_CODE":"US","REV_AT_EPOCH":"5816","MEAN_MOTION_DDOT":"0.0000000000000","OBJECT_ID":"2021-040AJ","MEAN_ELEMENT_THEORY":"SGP4","EPHEMERIS_TYPE":"0","MEAN_MOTION_DOT":"0.00001894","TLE_LINE2":"2 48460  53.0556 288.7300 0001801  63.8597 296.2577 15.06397341 58161","FILE":"3460905","ELEMENT_SET_NO":"999","PERIOD":"95.592","RCS_SIZE":"LARGE","OBJECT_NAME":"STARLINK-2582","ECCENTRICITY":"0.00018010","ARG_OF_PERICENTER":"63.8597","REF_FRAME":"TEME","PERIAPSIS":"545.974","OBJECT_TYPE":"PAYLOAD","MEAN_MOTION":"15.06397341"}];
